2024-173E               
1 61231U 24173E   26065.73780222  .00002848  00000+0  13860-3 0  9992
2 61231  97.4124 139.8220 0001700  89.2671 270.8758 15.19185166 80208
FLOCK 4H-23             
1 66726U 25276BN  26068.76636885  .00008172  00000+0  39949-3 0  9994
2 66726  97.4304 144.0252 0004026   1.9610 358.1639 15.18478039 15325
